ONEWEB-0456             
1 51646U 22012AA  26077.17247794 -.00000067  00000+0 -22904-3 0  9996
2 51646  87.8804  54.3594 0001950  89.0343 271.1007 13.10369923197429
ONEWEB-0457             
1 51647U 22012AB  26077.30196435  .00000678  00000+0  19055-2 0  9995
2 51647  87.8787  54.3640 0001933  70.3297 289.8039 13.10374076197442
ONEWEB-0458             
1 51648U 22012AC  26077.17082014  .00000033  00000+0  58656-4 0  9995
2 51648  87.8791  54.3717 0001717  86.1238 274.0085 13.10370145197386
ONEWEB-0461             
1 51649U 22012AD  26077.25756494  .00000047  00000+0  88028-4 0  9996
2 51649  87.9173  23.9050 0001941  76.0840 284.0507 13.17648463201913
ONEWEB-0463             
1 51650U 22012AE  26077.08713429  .00000010  00000+0 -63293-5 0  9999
2 51650  87.9162  23.9706 0001955  75.8930 284.2419 13.17650492201675
ONEWEB-0464             
1 51651U 22012AF  26077.16751165  .00000248  00000+0  67435-3 0  9990
2 51651  87.8785  54.4004 0001882  94.0943 266.0399 13.10372473197405
ONEWEB-0468             
1 51652U 22012AG  26077.17413412 -.00000135  00000+0 -42391-3 0  9993
2 51652  87.8782  54.3935 0001897  95.2369 264.8975 13.10369859197383
ONEWEB-0473             
1 51653U 22012AH  26077.15920786  .00000510  00000+0  14245-2 0  9990
2 51653  87.8786  54.3981 0001784  87.2405 272.8927 13.10370571197385
ONEWEB-0474             
1 51654U 22012AJ  26077.30362514  .00000662  00000+0  18603-2 0  9997
2 51654  87.8795  54.3450 0001893  92.9149 267.2195 13.10373683197399
ONEWEB-0475             
1 51655U 22012AK  26077.09894495 -.00000037  00000+0 -12766-3 0  9995
2 51655  87.9164  23.9600 0001614 100.8404 259.2909 13.17650567201693
ONEWEB-0490             
1 54113U 22138A   26077.15443225  .00000072  00000+0  14637-3 0  9990
2 54113  87.9225 323.1060 0001832  86.5023 273.6319 13.19725492164827
ONEWEB-0492             
1 54114U 22138B   26077.10388859  .00000103  00000+0  22517-3 0  9998
2 54114  87.9218 323.1235 0001973  82.8640 277.2717 13.19725294164826
ONEWEB-0495             
1 54115U 22138C   26077.23340140  .00000070  00000+0  14158-3 0  9999
2 54115  87.9217 323.0994 0002136  98.9376 261.1998 13.19725028164821
ONEWEB-0497             
1 54116U 22138D   26077.09441029  .00000123  00000+0  27465-3 0  9996
2 54116  87.9218 323.1177 0001795  83.3778 276.7559 13.19724934164797
ONEWEB-0499             
1 54117U 22138E   26077.15363387  .00000032  00000+0  48546-4 0  9997
2 54117  87.9221 323.1161 0001637  88.1758 271.9562 13.19726580164814
ONEWEB-0500             
1 54118U 22138F   26077.15600745  .00000078  00000+0  16210-3 0  9992
2 54118  87.9219 323.1049 0001795  79.1138 281.0197 13.19725032164822
ONEWEB-0501             
1 54119U 22138G   26077.11021029  .00000061  00000+0  11888-3 0  9999
2 54119  87.9216 323.1148 0001856  92.5508 267.5837 13.19725502164796
