[{"OBJECT_NAME":"ONEWEB-0456","OBJECT_ID":"2022-012AA","EPOCH":"2026-03-18T04:08:22.094016","MEAN_MOTION":13.10369923,"ECCENTRICITY":0.00019501,"INCLINATION":87.8804,"RA_OF_ASC_NODE":54.3594,"ARG_OF_PERICENTER":89.0343,"MEAN_ANOMALY":271.1007,"EPHEMERIS_TYPE":0,"CLASSIFICATION_TYPE":"U","NORAD_CAT_ID":51646,"ELEMENT_SET_NO":999,"REV_AT_EPOCH":19742,"BSTAR":-0.0002290398,"MEAN_MOTION_DOT":-6.7e-7,"MEAN_MOTION_DDOT":0},{"OBJECT_NAME":"ONEWEB-0457","OBJECT_ID":"2022-012AB","EPOCH":"2026-03-18T07:14:49.719840","MEAN_MOTION":13.10374076,"ECCENTRICITY":0.00019339,"INCLINATION":87.8787,"RA_OF_ASC_NODE":54.364,"ARG_OF_PERICENTER":70.3297,"MEAN_ANOMALY":289.8039,"EPHEMERIS_TYPE":0,"CLASSIFICATION_TYPE":"U","NORAD_CAT_ID":51647,"ELEMENT_SET_NO":999,"REV_AT_EPOCH":19744,"BSTAR":0.0019054504,"MEAN_MOTION_DOT":6.78e-6,"MEAN_MOTION_DDOT":0},{"OBJECT_NAME":"ONEWEB-0458","OBJECT_ID":"2022-012AC","EPOCH":"2026-03-18T04:05:58.860096","MEAN_MOTION":13.10370145,"ECCENTRICITY":0.00017179,"INCLINATION":87.8791,"RA_OF_ASC_NODE":54.3717,"ARG_OF_PERICENTER":86.1238,"MEAN_ANOMALY":274.0085,"EPHEMERIS_TYPE":0,"CLASSIFICATION_TYPE":"U","NORAD_CAT_ID":51648,"ELEMENT_SET_NO":999,"REV_AT_EPOCH":19738,"BSTAR":5.8656178e-5,"MEAN_MOTION_DOT":3.3e-7,"MEAN_MOTION_DDOT":0},{"OBJECT_NAME":"ONEWEB-0461","OBJECT_ID":"2022-012AD","EPOCH":"2026-03-18T06:10:53.610816","MEAN_MOTION":13.17648463,"ECCENTRICITY":0.00019419,"INCLINATION":87.9173,"RA_OF_ASC_NODE":23.905,"ARG_OF_PERICENTER":76.084,"MEAN_ANOMALY":284.0507,"EPHEMERIS_TYPE":0,"CLASSIFICATION_TYPE":"U","NORAD_CAT_ID":51649,"ELEMENT_SET_NO":999,"REV_AT_EPOCH":20191,"BSTAR":8.8027986e-5,"MEAN_MOTION_DOT":4.7e-7,"MEAN_MOTION_DDOT":0},{"OBJECT_NAME":"ONEWEB-0463","OBJECT_ID":"2022-012AE","EPOCH":"2026-03-18T02:05:28.402656","MEAN_MOTION":13.17650492,"ECCENTRICITY":0.00019557,"INCLINATION":87.9162,"RA_OF_ASC_NODE":23.9706,"ARG_OF_PERICENTER":75.893,"MEAN_ANOMALY":284.2419,"EPHEMERIS_TYPE":0,"CLASSIFICATION_TYPE":"U","NORAD_CAT_ID":51650,"ELEMENT_SET_NO":999,"REV_AT_EPOCH":20167,"BSTAR":-6.329322e-6,"MEAN_MOTION_DOT":1.0e-7,"MEAN_MOTION_DDOT":0},{"OBJECT_NAME":"ONEWEB-0464","OBJECT_ID":"2022-012AF","EPOCH":"2026-03-18T04:01:13.006560","MEAN_MOTION":13.10372473,"ECCENTRICITY":0.00018827,"INCLINATION":87.8785,"RA_OF_ASC_NODE":54.4004,"ARG_OF_PERICENTER":94.0943,"MEAN_ANOMALY":266.0399,"EPHEMERIS_TYPE":0,"CLASSIFICATION_TYPE":"U","NORAD_CAT_ID":51651,"ELEMENT_SET_NO":999,"REV_AT_EPOCH":19740,"BSTAR":0.00067435409,"MEAN_MOTION_DOT":2.48e-6,"MEAN_MOTION_DDOT":0},{"OBJECT_NAME":"ONEWEB-0468","OBJECT_ID":"2022-012AG","EPOCH":"2026-03-18T04:10:45.187968","MEAN_MOTION":13.10369859,"ECCENTRICITY":0.00018977,"INCLINATION":87.8782,"RA_OF_ASC_NODE":54.3935,"ARG_OF_PERICENTER":95.2369,"MEAN_ANOMALY":264.8975,"EPHEMERIS_TYPE":0,"CLASSIFICATION_TYPE":"U","NORAD_CAT_ID":51652,"ELEMENT_SET_NO":999,"REV_AT_EPOCH":19738,"BSTAR":-0.00042390778,"MEAN_MOTION_DOT":-1.35e-6,"MEAN_MOTION_DDOT":0},{"OBJECT_NAME":"ONEWEB-0473","OBJECT_ID":"2022-012AH","EPOCH":"2026-03-18T03:49:15.559104","MEAN_MOTION":13.10370571,"ECCENTRICITY":0.00017844,"INCLINATION":87.8786,"RA_OF_ASC_NODE":54.3981,"ARG_OF_PERICENTER":87.2405,"MEAN_ANOMALY":272.8927,"EPHEMERIS_TYPE":0,"CLASSIFICATION_TYPE":"U","NORAD_CAT_ID":51653,"ELEMENT_SET_NO":999,"REV_AT_EPOCH":19738,"BSTAR":0.0014245083,"MEAN_MOTION_DOT":5.1e-6,"MEAN_MOTION_DDOT":0},{"OBJECT_NAME":"ONEWEB-0474","OBJECT_ID":"2022-012AJ","EPOCH":"2026-03-18T07:17:13.212096","MEAN_MOTION":13.10373683,"ECCENTRICITY":0.00018939,"INCLINATION":87.8795,"RA_OF_ASC_NODE":54.345,"ARG_OF_PERICENTER":92.9149,"MEAN_ANOMALY":267.2195,"EPHEMERIS_TYPE":0,"CLASSIFICATION_TYPE":"U","NORAD_CAT_ID":51654,"ELEMENT_SET_NO":999,"REV_AT_EPOCH":19739,"BSTAR":0.0018602504,"MEAN_MOTION_DOT":6.62e-6,"MEAN_MOTION_DDOT":0},{"OBJECT_NAME":"ONEWEB-0475","OBJECT_ID":"2022-012AK","EPOCH":"2026-03-18T02:22:28.843680","MEAN_MOTION":13.17650567,"ECCENTRICITY":0.00016145,"INCLINATION":87.9164,"RA_OF_ASC_NODE":23.96,"ARG_OF_PERICENTER":100.8404,"MEAN_ANOMALY":259.2909,"EPHEMERIS_TYPE":0,"CLASSIFICATION_TYPE":"U","NORAD_CAT_ID":51655,"ELEMENT_SET_NO":999,"REV_AT_EPOCH":20169,"BSTAR":-0.00012766474,"MEAN_MOTION_DOT":-3.7e-7,"MEAN_MOTION_DDOT":0},{"OBJECT_NAME":"ONEWEB-0490","OBJECT_ID":"2022-138A","EPOCH":"2026-03-18T03:42:22.946400","MEAN_MOTION":13.19725492,"ECCENTRICITY":0.00018323,"INCLINATION":87.9225,"RA_OF_ASC_NODE":323.106,"ARG_OF_PERICENTER":86.5023,"MEAN_ANOMALY":273.6319,"EPHEMERIS_TYPE":0,"CLASSIFICATION_TYPE":"U","NORAD_CAT_ID":54113,"ELEMENT_SET_NO":999,"REV_AT_EPOCH":16482,"BSTAR":0.00014637311,"MEAN_MOTION_DOT":7.2e-7,"MEAN_MOTION_DDOT":0},{"OBJECT_NAME":"ONEWEB-0492","OBJECT_ID":"2022-138B","EPOCH":"2026-03-18T02:29:35.974176","MEAN_MOTION":13.19725294,"ECCENTRICITY":0.00019739,"INCLINATION":87.9218,"RA_OF_ASC_NODE":323.1235,"ARG_OF_PERICENTER":82.864,"MEAN_ANOMALY":277.2717,"EPHEMERIS_TYPE":0,"CLASSIFICATION_TYPE":"U","NORAD_CAT_ID":54114,"ELEMENT_SET_NO":999,"REV_AT_EPOCH":16482,"BSTAR":0.00022516516,"MEAN_MOTION_DOT":1.03e-6,"MEAN_MOTION_DDOT":0},{"OBJECT_NAME":"ONEWEB-0495","OBJECT_ID":"2022-138C","EPOCH":"2026-03-18T05:36:05.880960","MEAN_MOTION":13.19725028,"ECCENTRICITY":0.00021361,"INCLINATION":87.9217,"RA_OF_ASC_NODE":323.0994,"ARG_OF_PERICENTER":98.9376,"MEAN_ANOMALY":261.1998,"EPHEMERIS_TYPE":0,"CLASSIFICATION_TYPE":"U","NORAD_CAT_ID":54115,"ELEMENT_SET_NO":999,"REV_AT_EPOCH":16482,"BSTAR":0.00014158367,"MEAN_MOTION_DOT":7.0e-7,"MEAN_MOTION_DDOT":0},{"OBJECT_NAME":"ONEWEB-0497","OBJECT_ID":"2022-138D","EPOCH":"2026-03-18T02:15:57.049056","MEAN_MOTION":13.19724934,"ECCENTRICITY":0.00017958,"INCLINATION":87.9218,"RA_OF_ASC_NODE":323.1177,"ARG_OF_PERICENTER":83.3778,"MEAN_ANOMALY":276.7559,"EPHEMERIS_TYPE":0,"CLASSIFICATION_TYPE":"U","NORAD_CAT_ID":54116,"ELEMENT_SET_NO":999,"REV_AT_EPOCH":16479,"BSTAR":0.00027464734,"MEAN_MOTION_DOT":1.23e-6,"MEAN_MOTION_DDOT":0},{"OBJECT_NAME":"ONEWEB-0499","OBJECT_ID":"2022-138E","EPOCH":"2026-03-18T03:41:13.966368","MEAN_MOTION":13.1972658,"ECCENTRICITY":0.00016372,"INCLINATION":87.9221,"RA_OF_ASC_NODE":323.1161,"ARG_OF_PERICENTER":88.1758,"MEAN_ANOMALY":271.9562,"EPHEMERIS_TYPE":0,"CLASSIFICATION_TYPE":"U","NORAD_CAT_ID":54117,"ELEMENT_SET_NO":999,"REV_AT_EPOCH":16481,"BSTAR":4.8545813e-5,"MEAN_MOTION_DOT":3.2e-7,"MEAN_MOTION_DDOT":0},{"OBJECT_NAME":"ONEWEB-0500","OBJECT_ID":"2022-138F","EPOCH":"2026-03-18T03:44:39.043680","MEAN_MOTION":13.19725032,"ECCENTRICITY":0.00017956,"INCLINATION":87.9219,"RA_OF_ASC_NODE":323.1049,"ARG_OF_PERICENTER":79.1138,"MEAN_ANOMALY":281.0197,"EPHEMERIS_TYPE":0,"CLASSIFICATION_TYPE":"U","NORAD_CAT_ID":54118,"ELEMENT_SET_NO":999,"REV_AT_EPOCH":16482,"BSTAR":0.0001621038,"MEAN_MOTION_DOT":7.8e-7,"MEAN_MOTION_DDOT":0},{"OBJECT_NAME":"ONEWEB-0501","OBJECT_ID":"2022-138G","EPOCH":"2026-03-18T02:38:42.169056","MEAN_MOTION":13.19725502,"ECCENTRICITY":0.00018561,"INCLINATION":87.9216,"RA_OF_ASC_NODE":323.1148,"ARG_OF_PERICENTER":92.5508,"MEAN_ANOMALY":267.5837,"EPHEMERIS_TYPE":0,"CLASSIFICATION_TYPE":"U","NORAD_CAT_ID":54119,"ELEMENT_SET_NO":999,"REV_AT_EPOCH":16479,"BSTAR":0.00011888361,"MEAN_MOTION_DOT":6.1e-7,"MEAN_MOTION_DDOT":0}]
